CCSDS_OMM_VERS = 2.0
CREATION_DATE  = 
ORIGINATOR     = 

OBJECT_NAME    = SHIJIAN-28 (SJ-28)
OBJECT_ID      = 2025-277A
CENTER_NAME    = EARTH
REF_FRAME      = TEME
TIME_SYSTEM    = UTC
MEAN_ELEMENT_THEORY = SGP/SGP4

EPOCH          = 2025-12-25T13:29:07.948320
MEAN_MOTION    = 1.00264850
ECCENTRICITY   = .0000997
INCLINATION    = 4.9871
RA_OF_ASC_NODE = 274.7549
ARG_OF_PERICENTER = 127.1328
MEAN_ANOMALY   = 11.4336

EPHEMERIS_TYPE = 0
CLASSIFICATION_TYPE = U
NORAD_CAT_ID   = 66549
ELEMENT_SET_NO = 999
REV_AT_EPOCH   = 41
BSTAR          = 0
MEAN_MOTION_DOT = -.337E-5
MEAN_MOTION_DDOT = 0

CCSDS_OMM_VERS = 2.0
CREATION_DATE  = 
ORIGINATOR     = 

OBJECT_NAME    = CZ-7A R/B
OBJECT_ID      = 2025-277B
CENTER_NAME    = EARTH
REF_FRAME      = TEME
TIME_SYSTEM    = UTC
MEAN_ELEMENT_THEORY = SGP/SGP4

EPOCH          = 2025-12-23T05:53:12.433056
MEAN_MOTION    = 3.27661077
ECCENTRICITY   = .66094342
INCLINATION    = 14.3426
RA_OF_ASC_NODE = 263.9223
ARG_OF_PERICENTER = 200.4471
MEAN_ANOMALY   = 110.5172

EPHEMERIS_TYPE = 0
CLASSIFICATION_TYPE = U
NORAD_CAT_ID   = 66550
ELEMENT_SET_NO = 999
REV_AT_EPOCH   = 65
BSTAR          = .68493476E-2
MEAN_MOTION_DOT = .10979967E+0
MEAN_MOTION_DDOT = .18894821E-4

CCSDS_OMM_VERS = 2.0
CREATION_DATE  = 
ORIGINATOR     = 

OBJECT_NAME    = USA 568
OBJECT_ID      = 2024-134K
CENTER_NAME    = EARTH
REF_FRAME      = TEME
TIME_SYSTEM    = UTC
MEAN_ELEMENT_THEORY = SGP/SGP4

EPOCH          = 2025-12-02T16:00:03.000096
MEAN_MOTION    = 15.87051116
ECCENTRICITY   = .0000717
INCLINATION    = 53.1571
RA_OF_ASC_NODE = 236.7807
ARG_OF_PERICENTER = 110.7411
MEAN_ANOMALY   = 313.9012

EPHEMERIS_TYPE = 0
CLASSIFICATION_TYPE = U
NORAD_CAT_ID   = 66551
ELEMENT_SET_NO = 999
REV_AT_EPOCH   = 262
BSTAR          = -.74303E-2
MEAN_MOTION_DOT = -.1709685E-1
MEAN_MOTION_DDOT = 0

CCSDS_OMM_VERS = 2.0
CREATION_DATE  = 
ORIGINATOR     = 

OBJECT_NAME    = GLOBAL-33
OBJECT_ID      = 2025-267A
CENTER_NAME    = EARTH
REF_FRAME      = TEME
TIME_SYSTEM    = UTC
MEAN_ELEMENT_THEORY = SGP/SGP4

EPOCH          = 2025-12-25T23:11:09.479616
MEAN_MOTION    = 15.31778281
ECCENTRICITY   = .00048835
INCLINATION    = 42.0212
RA_OF_ASC_NODE = 340.6327
ARG_OF_PERICENTER = 183.6559
MEAN_ANOMALY   = 176.4243

EPHEMERIS_TYPE = 0
CLASSIFICATION_TYPE = U
NORAD_CAT_ID   = 66554
ELEMENT_SET_NO = 999
REV_AT_EPOCH   = 543
BSTAR          = .45946365E-3
MEAN_MOTION_DOT = .14182E-3
MEAN_MOTION_DDOT = 0

CCSDS_OMM_VERS = 2.0
CREATION_DATE  = 
ORIGINATOR     = 

OBJECT_NAME    = STARLINK-35699
OBJECT_ID      = 2025-268A
CENTER_NAME    = EARTH
REF_FRAME      = TEME
TIME_SYSTEM    = UTC
MEAN_ELEMENT_THEORY = SGP/SGP4

EPOCH          = 2025-12-26T00:00:02.000160
MEAN_MOTION    = 15.36585265
ECCENTRICITY   = .00016514
INCLINATION    = 43.0004
RA_OF_ASC_NODE = 43.7309
ARG_OF_PERICENTER = 256.6844
MEAN_ANOMALY   = 118.9426

EPHEMERIS_TYPE = 0
CLASSIFICATION_TYPE = U
NORAD_CAT_ID   = 66557
ELEMENT_SET_NO = 999
REV_AT_EPOCH   = 608
BSTAR          = -.6013134E-1
MEAN_MOTION_DOT = -.1957703E-1
MEAN_MOTION_DDOT = 0

CCSDS_OMM_VERS = 2.0
CREATION_DATE  = 
ORIGINATOR     = 

OBJECT_NAME    = STARLINK-35695
OBJECT_ID      = 2025-268B
CENTER_NAME    = EARTH
REF_FRAME      = TEME
TIME_SYSTEM    = UTC
MEAN_ELEMENT_THEORY = SGP/SGP4

EPOCH          = 2025-12-25T22:00:01.999584
MEAN_MOTION    = 15.37832998
ECCENTRICITY   = .00012115
INCLINATION    = 43.0004
RA_OF_ASC_NODE = 44.1738
ARG_OF_PERICENTER = 262.4527
MEAN_ANOMALY   = 26.2130

EPHEMERIS_TYPE = 0
CLASSIFICATION_TYPE = U
NORAD_CAT_ID   = 66558
ELEMENT_SET_NO = 999
REV_AT_EPOCH   = 607
BSTAR          = -.59577399E-1
MEAN_MOTION_DOT = -.2013341E-1
MEAN_MOTION_DDOT = 0

CCSDS_OMM_VERS = 2.0
CREATION_DATE  = 
ORIGINATOR     = 

OBJECT_NAME    = STARLINK-35419
OBJECT_ID      = 2025-268C
CENTER_NAME    = EARTH
REF_FRAME      = TEME
TIME_SYSTEM    = UTC
MEAN_ELEMENT_THEORY = SGP/SGP4

EPOCH          = 2025-12-25T22:00:01.999584
MEAN_MOTION    = 15.42987054
ECCENTRICITY   = .00014581
INCLINATION    = 43.0009
RA_OF_ASC_NODE = 44.0081
ARG_OF_PERICENTER = 264.4974
MEAN_ANOMALY   = 91.8122

EPHEMERIS_TYPE = 0
CLASSIFICATION_TYPE = U
NORAD_CAT_ID   = 66559
ELEMENT_SET_NO = 999
REV_AT_EPOCH   = 610
BSTAR          = -.51635762E-1
MEAN_MOTION_DOT = -.2066701E-1
MEAN_MOTION_DDOT = 0

CCSDS_OMM_VERS = 2.0
CREATION_DATE  = 
ORIGINATOR     = 

OBJECT_NAME    = STARLINK-35411
OBJECT_ID      = 2025-268D
CENTER_NAME    = EARTH
REF_FRAME      = TEME
TIME_SYSTEM    = UTC
MEAN_ELEMENT_THEORY = SGP/SGP4

EPOCH          = 2025-12-25T22:00:01.999584
MEAN_MOTION    = 15.43519688
ECCENTRICITY   = .00014991
INCLINATION    = 43.0011
RA_OF_ASC_NODE = 43.9896
ARG_OF_PERICENTER = 261.7615
MEAN_ANOMALY   = 102.0580

EPHEMERIS_TYPE = 0
CLASSIFICATION_TYPE = U
NORAD_CAT_ID   = 66560
ELEMENT_SET_NO = 999
REV_AT_EPOCH   = 607
BSTAR          = -.50816166E-1
MEAN_MOTION_DOT = -.2070711E-1
MEAN_MOTION_DDOT = 0

CCSDS_OMM_VERS = 2.0
CREATION_DATE  = 
ORIGINATOR     = 

OBJECT_NAME    = STARLINK-35305
OBJECT_ID      = 2025-268E
CENTER_NAME    = EARTH
REF_FRAME      = TEME
TIME_SYSTEM    = UTC
MEAN_ELEMENT_THEORY = SGP/SGP4

EPOCH          = 2025-12-25T22:00:01.999584
MEAN_MOTION    = 15.45174174
ECCENTRICITY   = .00012985
INCLINATION    = 43.0013
RA_OF_ASC_NODE = 43.9404
ARG_OF_PERICENTER = 269.2032
MEAN_ANOMALY   = 114.6286

EPHEMERIS_TYPE = 0
CLASSIFICATION_TYPE = U
NORAD_CAT_ID   = 66561
ELEMENT_SET_NO = 999
REV_AT_EPOCH   = 607
BSTAR          = -.46552708E-1
MEAN_MOTION_DOT = -.2014715E-1
MEAN_MOTION_DDOT = 0

CCSDS_OMM_VERS = 2.0
CREATION_DATE  = 
ORIGINATOR     = 

OBJECT_NAME    = STARLINK-35579
OBJECT_ID      = 2025-268F
CENTER_NAME    = EARTH
REF_FRAME      = TEME
TIME_SYSTEM    = UTC
MEAN_ELEMENT_THEORY = SGP/SGP4

EPOCH          = 2025-12-25T22:00:01.999584
MEAN_MOTION    = 15.44358230
ECCENTRICITY   = .00014511
INCLINATION    = 43.0011
RA_OF_ASC_NODE = 43.9640
ARG_OF_PERICENTER = 266.8020
MEAN_ANOMALY   = 107.3016

EPHEMERIS_TYPE = 0
CLASSIFICATION_TYPE = U
NORAD_CAT_ID   = 66562
ELEMENT_SET_NO = 999
REV_AT_EPOCH   = 607
BSTAR          = -.49483346E-1
MEAN_MOTION_DOT = -.2074668E-1
MEAN_MOTION_DDOT = 0

CCSDS_OMM_VERS = 2.0
CREATION_DATE  = 
ORIGINATOR     = 

OBJECT_NAME    = STARLINK-35437
OBJECT_ID      = 2025-268G
CENTER_NAME    = EARTH
REF_FRAME      = TEME
TIME_SYSTEM    = UTC
MEAN_ELEMENT_THEORY = SGP/SGP4

EPOCH          = 2025-12-25T22:00:01.999584
MEAN_MOTION    = 15.46021376
ECCENTRICITY   = .00014089
INCLINATION    = 43.0008
RA_OF_ASC_NODE = 43.9178
ARG_OF_PERICENTER = 264.9675
MEAN_ANOMALY   = 128.0256

EPHEMERIS_TYPE = 0
CLASSIFICATION_TYPE = U
NORAD_CAT_ID   = 66563
ELEMENT_SET_NO = 999
REV_AT_EPOCH   = 607
BSTAR          = -.45940979E-1
MEAN_MOTION_DOT = -.2043959E-1
MEAN_MOTION_DDOT = 0

CCSDS_OMM_VERS = 2.0
CREATION_DATE  = 
ORIGINATOR     = 

OBJECT_NAME    = STARLINK-35358
OBJECT_ID      = 2025-268H
CENTER_NAME    = EARTH
REF_FRAME      = TEME
TIME_SYSTEM    = UTC
MEAN_ELEMENT_THEORY = SGP/SGP4

EPOCH          = 2025-12-25T22:00:01.999584
MEAN_MOTION    = 15.46866904
ECCENTRICITY   = .00014983
INCLINATION    = 43.0007
RA_OF_ASC_NODE = 43.8964
ARG_OF_PERICENTER = 271.3385
MEAN_ANOMALY   = 130.2549

EPHEMERIS_TYPE = 0
CLASSIFICATION_TYPE = U
NORAD_CAT_ID   = 66564
ELEMENT_SET_NO = 999
REV_AT_EPOCH   = 601
BSTAR          = -.45023105E-1
MEAN_MOTION_DOT = -.2061019E-1
MEAN_MOTION_DDOT = 0

