SHIJIAN-28 (SJ-28)      
1 66549U 25277A   25359.56189755 -.00000337  00000+0  00000+0 0  9995
2 66549   4.9871 274.7549 0000997 127.1328  11.4336  1.00264850   417
CZ-7A R/B               
1 66550U 25277B   25357.24528279  .10979967  18895-4  68493-2 0  9991
2 66550  14.3426 263.9223 6609434 200.4471 110.5172  3.27661077   658
USA 568                 
1 66551U 24134K   25336.66670139 -.01709685  00000+0 -74303-2 0  9990
2 66551  53.1571 236.7807 0000717 110.7411 313.9012 15.87051116  2624
GLOBAL-33               
1 66554U 25267A   25359.96608194  .00014182  00000+0  45946-3 0  9991
2 66554  42.0212 340.6327 0004883 183.6559 176.4243 15.31778281  5436
STARLINK-35699          
1 66557U 25268A   25360.00002315 -.01957703  00000+0 -60131-1 0  9994
2 66557  43.0004  43.7309 0001651 256.6844 118.9426 15.36585265  6087
STARLINK-35695          
1 66558U 25268B   25359.91668981 -.02013341  00000+0 -59577-1 0  9994
2 66558  43.0004  44.1738 0001211 262.4527  26.2130 15.37832998  6075
STARLINK-35419          
1 66559U 25268C   25359.91668981 -.02066701  00000+0 -51636-1 0  9991
2 66559  43.0009  44.0081 0001458 264.4974  91.8122 15.42987054  6105
STARLINK-35411          
1 66560U 25268D   25359.91668981 -.02070711  00000+0 -50816-1 0  9998
2 66560  43.0011  43.9896 0001499 261.7615 102.0580 15.43519688  6073
STARLINK-35305          
1 66561U 25268E   25359.91668981 -.02014715  00000+0 -46553-1 0  9994
2 66561  43.0013  43.9404 0001298 269.2032 114.6286 15.45174174  6075
STARLINK-35579          
1 66562U 25268F   25359.91668981 -.02074668  00000+0 -49483-1 0  9993
2 66562  43.0011  43.9640 0001451 266.8020 107.3016 15.44358230  6073
STARLINK-35437          
1 66563U 25268G   25359.91668981 -.02043959  00000+0 -45941-1 0  9998
2 66563  43.0008  43.9178 0001408 264.9675 128.0256 15.46021376  6079
STARLINK-35358          
1 66564U 25268H   25359.91668981 -.02061019  00000+0 -45023-1 0  9997
2 66564  43.0007  43.8964 0001498 271.3385 130.2549 15.46866904  6018
